[{"OBJECT_NAME":"STARLINK-32841","OBJECT_ID":"2025-022M","EPOCH":"2026-03-09T10:51:21.439008","MEAN_MOTION":15.30186569,"ECCENTRICITY":0.00013464,"INCLINATION":53.1577,"RA_OF_ASC_NODE":130.728,"ARG_OF_PERICENTER":81.5163,"MEAN_ANOMALY":278.5991,"EPHEMERIS_TYPE":0,"CLASSIFICATION_TYPE":"U","NORAD_CAT_ID":62865,"ELEMENT_SET_NO":999,"REV_AT_EPOCH":6185,"BSTAR":0.0011668282,"MEAN_MOTION_DOT":0.00034344,"MEAN_MOTION_DDOT":0},{"OBJECT_NAME":"TEVEL2-4","OBJECT_ID":"2025-052D","EPOCH":"2026-03-09T16:39:37.129536","MEAN_MOTION":15.30925813,"ECCENTRICITY":0.0004733,"INCLINATION":97.4009,"RA_OF_ASC_NODE":325.1237,"ARG_OF_PERICENTER":95.3468,"MEAN_ANOMALY":264.8313,"EPHEMERIS_TYPE":0,"CLASSIFICATION_TYPE":"U","NORAD_CAT_ID":63213,"ELEMENT_SET_NO":999,"REV_AT_EPOCH":5487,"BSTAR":0.00070362503,"MEAN_MOTION_DOT":0.0002099,"MEAN_MOTION_DDOT":0}]
